[{"OBJECT_NAME":"STARLINK-2121","OBJECT_ID":"2021-005BC","EPOCH":"2026-03-09T05:41:19.417056","MEAN_MOTION":15.30200308,"ECCENTRICITY":0.00014614,"INCLINATION":53.1616,"RA_OF_ASC_NODE":38.8073,"ARG_OF_PERICENTER":88.4147,"MEAN_ANOMALY":271.7021,"EPHEMERIS_TYPE":0,"CLASSIFICATION_TYPE":"U","NORAD_CAT_ID":47399,"ELEMENT_SET_NO":999,"REV_AT_EPOCH":28332,"BSTAR":2.675424e-5,"MEAN_MOTION_DOT":4.33e-6,"MEAN_MOTION_DDOT":0},{"OBJECT_NAME":"TRANSPORTER-10 OBJECT AG","OBJECT_ID":"2024-043AG","EPOCH":"2026-03-09T22:12:45.387648","MEAN_MOTION":15.30759727,"ECCENTRICITY":0.00093005,"INCLINATION":97.5471,"RA_OF_ASC_NODE":205.7101,"ARG_OF_PERICENTER":226.5958,"MEAN_ANOMALY":133.4509,"EPHEMERIS_TYPE":0,"CLASSIFICATION_TYPE":"U","NORAD_CAT_ID":59128,"ELEMENT_SET_NO":999,"REV_AT_EPOCH":11192,"BSTAR":0.00032170115,"MEAN_MOTION_DOT":9.498e-5,"MEAN_MOTION_DDOT":0}]
